{"fetched_at":"2026-04-04T08:40:15Z","count":2451,"tles":[{"name":"ENVISAT","line1":"1 27386U 02009A   26093.66478919  .00000219  00000+0  84650-4 0  9995","line2":"2 27386  98.3770  46.6740 0001194  82.2893  90.7904 14.39046275262769","category":"Other"},{"name":"ISS (ZARYA)","line1":"1 25544U 98067A   26093.48852459  .00011755  00000+0  22309-3 0  9992","line2":"2 25544  51.6327 309.7562 0006234 267.4493  92.5781 15.48743801560170","category":"ISS"},{"name":"TERRA","line1":"1 25994U 99068A   26093.66282897  .00000809  00000+0  17375-3 0  9991","line2":"2 25994  97.9541 146.1370 0003662 100.1332  59.4236 14.61043580398725","category":"Other"},{"name":"SL-16 R/B","line1":"1 25861U 99039B   26093.61760455  .00001047  00000+0  13938-3 0  9994","line2":"2 25861  97.9913 152.6704 0015008 171.3759 188.7715 14.81768580440557","category":"Other"},{"name":"CZ-4B R/B","line1":"1 25732U 99025C   26093.64924135  .00000092  00000+0  65268-4 0  9999","line2":"2 25732  98.6574 137.3337 0035972 273.1230 197.5134 14.18270600391700","category":"Other"},{"name":"DELTA 2 R/B","line1":"1 25876U 99041E   26093.57240533  .00001141  00000+0  22281-3 0  9994","line2":"2 25876  51.7610 201.8793 0502620  61.8074 303.2678 14.11897567366543","category":"Other"},{"name":"OKEAN-O","line1":"1 25860U 99039A   26093.59359539  .00001187  00000+0  16241-3 0  9992","line2":"2 25860  97.9390 153.2255 0000925 102.2063 257.9253 14.80378596438079","category":"Other"},{"name":"HELIOS 1B","line1":"1 25977U 99064A   26093.66607413  .00003465  00000+0  38576-3 0  9990","line2":"2 25977  98.1670 356.6410 0001532  44.3897 315.7441 14.87801906688971","category":"Other"},{"name":"SL-16 R/B","line1":"1 26070U 00006B   26093.59913301  .00000154  00000+0  10263-3 0  9996","line2":"2 26070  71.0037  45.4574 0015284 150.7556 209.4426 14.15830884352080","category":"Other"},{"name":"IDEFIX & ARIANE 42P R/B","line1":"1 27422U 02021B   26093.45713988  .00000468  00000+0  19409-3 0  9990","line2":"2 27422  98.5899  31.7717 0012837 112.1387 248.1160 14.31044184247563","category":"Other"},{"name":"TITAN 4B R/B","line1":"1 26474U 00047B   26093.60759909  .00006323  00000+0  39097-3 0  9993","line2":"2 26474  67.9903 330.4329 0040245   6.1947 353.9691 15.09799742396675","category":"Other"},{"name":"SL-16 R/B","line1":"1 25407U 98045B   26093.50659289  .00000044  00000+0  46437-4 0  9993","line2":"2 25407  71.0091 129.3870 0008204 331.4959  28.5714 14.16193398430612","category":"Other"}]}