CCSDS_OMM_VERS = 2.0
CREATION_DATE  = 
ORIGINATOR     = 

OBJECT_NAME    = SL-16 R/B
OBJECT_ID      = 1998-045B
CENTER_NAME    = EARTH
REF_FRAME      = TEME
TIME_SYSTEM    = UTC
MEAN_ELEMENT_THEORY = SGP/SGP4

EPOCH          = 2026-04-03T12:09:29.625696
MEAN_MOTION    = 14.16193398
ECCENTRICITY   = .00082041
INCLINATION    = 71.0091
RA_OF_ASC_NODE = 129.3870
ARG_OF_PERICENTER = 331.4959
MEAN_ANOMALY   = 28.5714

EPHEMERIS_TYPE = 0
CLASSIFICATION_TYPE = U
NORAD_CAT_ID   = 25407
ELEMENT_SET_NO = 999
REV_AT_EPOCH   = 43061
BSTAR          = .46436855E-4
MEAN_MOTION_DOT = .44E-6
MEAN_MOTION_DDOT = 0

CCSDS_OMM_VERS = 2.0
CREATION_DATE  = 
ORIGINATOR     = 

OBJECT_NAME    = ISS (ZARYA)
OBJECT_ID      = 1998-067A
CENTER_NAME    = EARTH
REF_FRAME      = TEME
TIME_SYSTEM    = UTC
MEAN_ELEMENT_THEORY = SGP/SGP4

EPOCH          = 2026-04-03T11:43:28.524576
MEAN_MOTION    = 15.48743801
ECCENTRICITY   = .00062343
INCLINATION    = 51.6327
RA_OF_ASC_NODE = 309.7562
ARG_OF_PERICENTER = 267.4493
MEAN_ANOMALY   = 92.5781

EPHEMERIS_TYPE = 0
CLASSIFICATION_TYPE = U
NORAD_CAT_ID   = 25544
ELEMENT_SET_NO = 999
REV_AT_EPOCH   = 56017
BSTAR          = .22309225E-3
MEAN_MOTION_DOT = .11755E-3
MEAN_MOTION_DDOT = 0

CCSDS_OMM_VERS = 2.0
CREATION_DATE  = 
ORIGINATOR     = 

OBJECT_NAME    = CZ-4B R/B
OBJECT_ID      = 1999-025C
CENTER_NAME    = EARTH
REF_FRAME      = TEME
TIME_SYSTEM    = UTC
MEAN_ELEMENT_THEORY = SGP/SGP4

EPOCH          = 2026-04-03T15:34:54.452640
MEAN_MOTION    = 14.18270600
ECCENTRICITY   = .00359723
INCLINATION    = 98.6574
RA_OF_ASC_NODE = 137.3337
ARG_OF_PERICENTER = 273.1230
MEAN_ANOMALY   = 197.5134

EPHEMERIS_TYPE = 0
CLASSIFICATION_TYPE = U
NORAD_CAT_ID   = 25732
ELEMENT_SET_NO = 999
REV_AT_EPOCH   = 39170
BSTAR          = .65267576E-4
MEAN_MOTION_DOT = .92E-6
MEAN_MOTION_DDOT = 0

CCSDS_OMM_VERS = 2.0
CREATION_DATE  = 
ORIGINATOR     = 

OBJECT_NAME    = OKEAN-O
OBJECT_ID      = 1999-039A
CENTER_NAME    = EARTH
REF_FRAME      = TEME
TIME_SYSTEM    = UTC
MEAN_ELEMENT_THEORY = SGP/SGP4

EPOCH          = 2026-04-03T14:14:46.641696
MEAN_MOTION    = 14.80378596
ECCENTRICITY   = .00009259
INCLINATION    = 97.9390
RA_OF_ASC_NODE = 153.2255
ARG_OF_PERICENTER = 102.2063
MEAN_ANOMALY   = 257.9253

EPHEMERIS_TYPE = 0
CLASSIFICATION_TYPE = U
NORAD_CAT_ID   = 25860
ELEMENT_SET_NO = 999
REV_AT_EPOCH   = 43807
BSTAR          = .162411E-3
MEAN_MOTION_DOT = .1187E-4
MEAN_MOTION_DDOT = 0

CCSDS_OMM_VERS = 2.0
CREATION_DATE  = 
ORIGINATOR     = 

OBJECT_NAME    = SL-16 R/B
OBJECT_ID      = 1999-039B
CENTER_NAME    = EARTH
REF_FRAME      = TEME
TIME_SYSTEM    = UTC
MEAN_ELEMENT_THEORY = SGP/SGP4

EPOCH          = 2026-04-03T14:49:21.033120
MEAN_MOTION    = 14.81768580
ECCENTRICITY   = .00150088
INCLINATION    = 97.9913
RA_OF_ASC_NODE = 152.6704
ARG_OF_PERICENTER = 171.3759
MEAN_ANOMALY   = 188.7715

EPHEMERIS_TYPE = 0
CLASSIFICATION_TYPE = U
NORAD_CAT_ID   = 25861
ELEMENT_SET_NO = 999
REV_AT_EPOCH   = 44055
BSTAR          = .13938022E-3
MEAN_MOTION_DOT = .1047E-4
MEAN_MOTION_DDOT = 0

CCSDS_OMM_VERS = 2.0
CREATION_DATE  = 
ORIGINATOR     = 

OBJECT_NAME    = DELTA 2 R/B
OBJECT_ID      = 1999-041E
CENTER_NAME    = EARTH
REF_FRAME      = TEME
TIME_SYSTEM    = UTC
MEAN_ELEMENT_THEORY = SGP/SGP4

EPOCH          = 2026-04-03T13:44:15.820512
MEAN_MOTION    = 14.11897567
ECCENTRICITY   = .05026201
INCLINATION    = 51.7610
RA_OF_ASC_NODE = 201.8793
ARG_OF_PERICENTER = 61.8074
MEAN_ANOMALY   = 303.2678

EPHEMERIS_TYPE = 0
CLASSIFICATION_TYPE = U
NORAD_CAT_ID   = 25876
ELEMENT_SET_NO = 999
REV_AT_EPOCH   = 36654
BSTAR          = .22281201E-3
MEAN_MOTION_DOT = .1141E-4
MEAN_MOTION_DDOT = 0

CCSDS_OMM_VERS = 2.0
CREATION_DATE  = 
ORIGINATOR     = 

OBJECT_NAME    = HELIOS 1B
OBJECT_ID      = 1999-064A
CENTER_NAME    = EARTH
REF_FRAME      = TEME
TIME_SYSTEM    = UTC
MEAN_ELEMENT_THEORY = SGP/SGP4

EPOCH          = 2026-04-03T15:59:08.804832
MEAN_MOTION    = 14.87801906
ECCENTRICITY   = .00015329
INCLINATION    = 98.1670
RA_OF_ASC_NODE = 356.6410
ARG_OF_PERICENTER = 44.3897
MEAN_ANOMALY   = 315.7441

EPHEMERIS_TYPE = 0
CLASSIFICATION_TYPE = U
NORAD_CAT_ID   = 25977
ELEMENT_SET_NO = 999
REV_AT_EPOCH   = 68897
BSTAR          = .3857568E-3
MEAN_MOTION_DOT = .3465E-4
MEAN_MOTION_DDOT = 0

CCSDS_OMM_VERS = 2.0
CREATION_DATE  = 
ORIGINATOR     = 

OBJECT_NAME    = TERRA
OBJECT_ID      = 1999-068A
CENTER_NAME    = EARTH
REF_FRAME      = TEME
TIME_SYSTEM    = UTC
MEAN_ELEMENT_THEORY = SGP/SGP4

EPOCH          = 2026-04-03T15:54:28.423008
MEAN_MOTION    = 14.61043580
ECCENTRICITY   = .00036628
INCLINATION    = 97.9541
RA_OF_ASC_NODE = 146.1370
ARG_OF_PERICENTER = 100.1332
MEAN_ANOMALY   = 59.4236

EPHEMERIS_TYPE = 0
CLASSIFICATION_TYPE = U
NORAD_CAT_ID   = 25994
ELEMENT_SET_NO = 999
REV_AT_EPOCH   = 39872
BSTAR          = .17375255E-3
MEAN_MOTION_DOT = .809E-5
MEAN_MOTION_DDOT = 0

CCSDS_OMM_VERS = 2.0
CREATION_DATE  = 
ORIGINATOR     = 

OBJECT_NAME    = SL-16 R/B
OBJECT_ID      = 2000-006B
CENTER_NAME    = EARTH
REF_FRAME      = TEME
TIME_SYSTEM    = UTC
MEAN_ELEMENT_THEORY = SGP/SGP4

EPOCH          = 2026-04-03T14:22:45.092064
MEAN_MOTION    = 14.15830884
ECCENTRICITY   = .00152845
INCLINATION    = 71.0037
RA_OF_ASC_NODE = 45.4574
ARG_OF_PERICENTER = 150.7556
MEAN_ANOMALY   = 209.4426

EPHEMERIS_TYPE = 0
CLASSIFICATION_TYPE = U
NORAD_CAT_ID   = 26070
ELEMENT_SET_NO = 999
REV_AT_EPOCH   = 35208
BSTAR          = .10263171E-3
MEAN_MOTION_DOT = .154E-5
MEAN_MOTION_DDOT = 0

CCSDS_OMM_VERS = 2.0
CREATION_DATE  = 
ORIGINATOR     = 

OBJECT_NAME    = TITAN 4B R/B
OBJECT_ID      = 2000-047B
CENTER_NAME    = EARTH
REF_FRAME      = TEME
TIME_SYSTEM    = UTC
MEAN_ELEMENT_THEORY = SGP/SGP4

EPOCH          = 2026-04-03T14:34:56.561376
MEAN_MOTION    = 15.09799742
ECCENTRICITY   = .00402455
INCLINATION    = 67.9903
RA_OF_ASC_NODE = 330.4329
ARG_OF_PERICENTER = 6.1947
MEAN_ANOMALY   = 353.9691

EPHEMERIS_TYPE = 0
CLASSIFICATION_TYPE = U
NORAD_CAT_ID   = 26474
ELEMENT_SET_NO = 999
REV_AT_EPOCH   = 39667
BSTAR          = .39097152E-3
MEAN_MOTION_DOT = .6323E-4
MEAN_MOTION_DDOT = 0

CCSDS_OMM_VERS = 2.0
CREATION_DATE  = 
ORIGINATOR     = 

OBJECT_NAME    = ENVISAT
OBJECT_ID      = 2002-009A
CENTER_NAME    = EARTH
REF_FRAME      = TEME
TIME_SYSTEM    = UTC
MEAN_ELEMENT_THEORY = SGP/SGP4

EPOCH          = 2026-04-03T15:57:17.786016
MEAN_MOTION    = 14.39046275
ECCENTRICITY   = .00011949
INCLINATION    = 98.3770
RA_OF_ASC_NODE = 46.6740
ARG_OF_PERICENTER = 82.2893
MEAN_ANOMALY   = 90.7904

EPHEMERIS_TYPE = 0
CLASSIFICATION_TYPE = U
NORAD_CAT_ID   = 27386
ELEMENT_SET_NO = 999
REV_AT_EPOCH   = 26276
BSTAR          = .84649599E-4
MEAN_MOTION_DOT = .219E-5
MEAN_MOTION_DDOT = 0

CCSDS_OMM_VERS = 2.0
CREATION_DATE  = 
ORIGINATOR     = 

OBJECT_NAME    = IDEFIX & ARIANE 42P R/B
OBJECT_ID      = 2002-021B
CENTER_NAME    = EARTH
REF_FRAME      = TEME
TIME_SYSTEM    = UTC
MEAN_ELEMENT_THEORY = SGP/SGP4

EPOCH          = 2026-04-03T10:58:16.885632
MEAN_MOTION    = 14.31044184
ECCENTRICITY   = .00128377
INCLINATION    = 98.5899
RA_OF_ASC_NODE = 31.7717
ARG_OF_PERICENTER = 112.1387
MEAN_ANOMALY   = 248.1160

EPHEMERIS_TYPE = 0
CLASSIFICATION_TYPE = U
NORAD_CAT_ID   = 27422
ELEMENT_SET_NO = 999
REV_AT_EPOCH   = 24756
BSTAR          = .1940873E-3
MEAN_MOTION_DOT = .468E-5
MEAN_MOTION_DDOT = 0

